[{"OBJECT_NAME":"ATLAS 2 CENTAUR R/B(2)","OBJECT_ID":"1995-038C","EPOCH":"2026-03-04T12:00:40.924224","MEAN_MOTION":1.01263033,"ECCENTRICITY":0.00236625,"INCLINATION":13.7764,"RA_OF_ASC_NODE":346.0859,"ARG_OF_PERICENTER":301.4353,"MEAN_ANOMALY":58.3418,"EPHEMERIS_TYPE":0,"CLASSIFICATION_TYPE":"U","NORAD_CAT_ID":23648,"ELEMENT_SET_NO":999,"REV_AT_EPOCH":2502,"BSTAR":0,"MEAN_MOTION_DOT":7.6e-7,"MEAN_MOTION_DDOT":0},{"OBJECT_NAME":"COSMOS 2319","OBJECT_ID":"1995-045A","EPOCH":"2026-03-05T16:53:38.623200","MEAN_MOTION":1.00206862,"ECCENTRICITY":0.0006831,"INCLINATION":14.3692,"RA_OF_ASC_NODE":353.4969,"ARG_OF_PERICENTER":268.5544,"MEAN_ANOMALY":280.7974,"EPHEMERIS_TYPE":0,"CLASSIFICATION_TYPE":"U","NORAD_CAT_ID":23653,"ELEMENT_SET_NO":999,"REV_AT_EPOCH":11175,"BSTAR":0,"MEAN_MOTION_DOT":-3.73e-6,"MEAN_MOTION_DDOT":0},{"OBJECT_NAME":"SL-12 R/B(2)","OBJECT_ID":"1995-045D","EPOCH":"2026-03-03T10:46:38.642304","MEAN_MOTION":1.00139228,"ECCENTRICITY":0.0018214,"INCLINATION":14.4268,"RA_OF_ASC_NODE":353.8308,"ARG_OF_PERICENTER":50.8422,"MEAN_ANOMALY":141.915,"EPHEMERIS_TYPE":0,"CLASSIFICATION_TYPE":"U","NORAD_CAT_ID":23656,"ELEMENT_SET_NO":999,"REV_AT_EPOCH":11160,"BSTAR":0,"MEAN_MOTION_DOT":6.5e-7,"MEAN_MOTION_DDOT":0},{"OBJECT_NAME":"TELSTAR 4 (TELSTAR 402R)","OBJECT_ID":"1995-049A","EPOCH":"2026-03-05T08:24:34.934112","MEAN_MOTION":1.00296229,"ECCENTRICITY":0.0004925,"INCLINATION":13.504,"RA_OF_ASC_NODE":13.4494,"ARG_OF_PERICENTER":321.1441,"MEAN_ANOMALY":219.3358,"EPHEMERIS_TYPE":0,"CLASSIFICATION_TYPE":"U","NORAD_CAT_ID":23670,"ELEMENT_SET_NO":999,"REV_AT_EPOCH":11146,"BSTAR":0,"MEAN_MOTION_DOT":-1.79e-6,"MEAN_MOTION_DDOT":0},{"OBJECT_NAME":"LUCH-1","OBJECT_ID":"1995-054A","EPOCH":"2026-03-05T16:10:57.324576","MEAN_MOTION":1.00267036,"ECCENTRICITY":0.0004455,"INCLINATION":15.0204,"RA_OF_ASC_NODE":0.0662,"ARG_OF_PERICENTER":150.1295,"MEAN_ANOMALY":331.8636,"EPHEMERIS_TYPE":0,"CLASSIFICATION_TYPE":"U","NORAD_CAT_ID":23680,"ELEMENT_SET_NO":999,"REV_AT_EPOCH":11131,"BSTAR":0,"MEAN_MOTION_DOT":-1.22e-6,"MEAN_MOTION_DDOT":0},{"OBJECT_NAME":"SL-12 R/B(2)","OBJECT_ID":"1995-054D","EPOCH":"2026-03-05T17:22:42.570048","MEAN_MOTION":1.00201511,"ECCENTRICITY":0.0017898,"INCLINATION":14.9841,"RA_OF_ASC_NODE":359.8839,"ARG_OF_PERICENTER":97.6148,"MEAN_ANOMALY":82.4753,"EPHEMERIS_TYPE":0,"CLASSIFICATION_TYPE":"U","NORAD_CAT_ID":23683,"ELEMENT_SET_NO":999,"REV_AT_EPOCH":11133,"BSTAR":0,"MEAN_MOTION_DOT":-3.77e-6,"MEAN_MOTION_DDOT":0},{"OBJECT_NAME":"ARIANE 42L+3 R/B","OBJECT_ID":"1995-055B","EPOCH":"2026-03-05T04:04:52.603392","MEAN_MOTION":2.22313857,"ECCENTRICITY":0.7227921,"INCLINATION":5.2521,"RA_OF_ASC_NODE":297.6467,"ARG_OF_PERICENTER":265.5858,"MEAN_ANOMALY":16.3349,"EPHEMERIS_TYPE":0,"CLASSIFICATION_TYPE":"U","NORAD_CAT_ID":23687,"ELEMENT_SET_NO":999,"REV_AT_EPOCH":24575,"BSTAR":0.0007617,"MEAN_MOTION_DOT":-6.9e-7,"MEAN_MOTION_DDOT":0},{"OBJECT_NAME":"USA 115 (MILSTAR-1 2)","OBJECT_ID":"1995-060A","EPOCH":"2026-03-05T10:00:10.769184","MEAN_MOTION":1.00275623,"ECCENTRICITY":0.0004062,"INCLINATION":14.0358,"RA_OF_ASC_NODE":4.5176,"ARG_OF_PERICENTER":341.7289,"MEAN_ANOMALY":206.9954,"EPHEMERIS_TYPE":0,"CLASSIFICATION_TYPE":"U","NORAD_CAT_ID":23712,"ELEMENT_SET_NO":999,"REV_AT_EPOCH":3184,"BSTAR":0,"MEAN_MOTION_DOT":-2.5e-7,"MEAN_MOTION_DDOT":0},{"OBJECT_NAME":"TITAN 401 CENTAUR R/B","OBJECT_ID":"1995-060B","EPOCH":"2026-03-04T07:11:51.576000","MEAN_MOTION":1.00603797,"ECCENTRICITY":0.00356634,"INCLINATION":14.3794,"RA_OF_ASC_NODE":359.6609,"ARG_OF_PERICENTER":224.2651,"MEAN_ANOMALY":135.4553,"EPHEMERIS_TYPE":0,"CLASSIFICATION_TYPE":"U","NORAD_CAT_ID":23713,"ELEMENT_SET_NO":999,"REV_AT_EPOCH":2437,"BSTAR":0,"MEAN_MOTION_DOT":-3.06e-6,"MEAN_MOTION_DDOT":0},{"OBJECT_NAME":"ISO","OBJECT_ID":"1995-062A","EPOCH":"2026-03-05T02:06:38.627712","MEAN_MOTION":1.02201686,"ECCENTRICITY":0.8364967,"INCLINATION":2.5652,"RA_OF_ASC_NODE":325.329,"ARG_OF_PERICENTER":323.7766,"MEAN_ANOMALY":2.3859,"EPHEMERIS_TYPE":0,"CLASSIFICATION_TYPE":"U","NORAD_CAT_ID":23715,"ELEMENT_SET_NO":999,"REV_AT_EPOCH":11263,"BSTAR":-0.0013718,"MEAN_MOTION_DOT":-2.15e-6,"MEAN_MOTION_DDOT":0},{"OBJECT_NAME":"ARIANE 44P+3 R/B","OBJECT_ID":"1995-062B","EPOCH":"2026-03-05T13:31:30.231840","MEAN_MOTION":0.95004286,"ECCENTRICITY":0.8347206,"INCLINATION":4.4153,"RA_OF_ASC_NODE":22.9697,"ARG_OF_PERICENTER":16.3327,"MEAN_ANOMALY":358.5936,"EPHEMERIS_TYPE":0,"CLASSIFICATION_TYPE":"U","NORAD_CAT_ID":23716,"ELEMENT_SET_NO":999,"REV_AT_EPOCH":10522,"BSTAR":0,"MEAN_MOTION_DOT":-3.15e-6,"MEAN_MOTION_DDOT":0},{"OBJECT_NAME":"GALS 2","OBJECT_ID":"1995-063A","EPOCH":"2026-03-05T17:12:38.822400","MEAN_MOTION":0.99895473,"ECCENTRICITY":0.0009347,"INCLINATION":14.4515,"RA_OF_ASC_NODE":3.3766,"ARG_OF_PERICENTER":329.0636,"MEAN_ANOMALY":238.4698,"EPHEMERIS_TYPE":0,"CLASSIFICATION_TYPE":"U","NORAD_CAT_ID":23717,"ELEMENT_SET_NO":999,"REV_AT_EPOCH":11059,"BSTAR":0,"MEAN_MOTION_DOT":-2.91e-6,"MEAN_MOTION_DDOT":0},{"OBJECT_NAME":"SL-12 R/B(2)","OBJECT_ID":"1995-063D","EPOCH":"2026-03-05T00:34:38.815968","MEAN_MOTION":1.00285866,"ECCENTRICITY":0.0035921,"INCLINATION":14.1953,"RA_OF_ASC_NODE":348.9564,"ARG_OF_PERICENTER":187.5535,"MEAN_ANOMALY":3.455,"EPHEMERIS_TYPE":0,"CLASSIFICATION_TYPE":"U","NORAD_CAT_ID":23720,"ELEMENT_SET_NO":999,"REV_AT_EPOCH":11094,"BSTAR":0,"MEAN_MOTION_DOT":2.7e-7,"MEAN_MOTION_DDOT":0},{"OBJECT_NAME":"INSAT-2C","OBJECT_ID":"1995-067B","EPOCH":"2026-03-05T11:29:38.817600","MEAN_MOTION":0.99783181,"ECCENTRICITY":0.0003883,"INCLINATION":14.2456,"RA_OF_ASC_NODE":9.0438,"ARG_OF_PERICENTER":6.3439,"MEAN_ANOMALY":171.3844,"EPHEMERIS_TYPE":0,"CLASSIFICATION_TYPE":"U","NORAD_CAT_ID":23731,"ELEMENT_SET_NO":999,"REV_AT_EPOCH":11037,"BSTAR":0,"MEAN_MOTION_DOT":8.5e-7,"MEAN_MOTION_DDOT":0},{"OBJECT_NAME":"GALAXY 3R (G-3R)","OBJECT_ID":"1995-069A","EPOCH":"2026-03-05T11:40:40.016928","MEAN_MOTION":1.00309421,"ECCENTRICITY":0.0001812,"INCLINATION":13.1905,"RA_OF_ASC_NODE":17,"ARG_OF_PERICENTER":345.331,"MEAN_ANOMALY":208.2928,"EPHEMERIS_TYPE":0,"CLASSIFICATION_TYPE":"U","NORAD_CAT_ID":23741,"ELEMENT_SET_NO":999,"REV_AT_EPOCH":11077,"BSTAR":0,"MEAN_MOTION_DOT":1.9e-7,"MEAN_MOTION_DDOT":0},{"OBJECT_NAME":"ABS-1A","OBJECT_ID":"1996-003A","EPOCH":"2026-03-05T16:31:38.578080","MEAN_MOTION":0.99803652,"ECCENTRICITY":0.0001234,"INCLINATION":12.4663,"RA_OF_ASC_NODE":26.3227,"ARG_OF_PERICENTER":291.7218,"MEAN_ANOMALY":251.0671,"EPHEMERIS_TYPE":0,"CLASSIFICATION_TYPE":"U","NORAD_CAT_ID":23768,"ELEMENT_SET_NO":999,"REV_AT_EPOCH":11014,"BSTAR":0,"MEAN_MOTION_DOT":-2.39e-6,"MEAN_MOTION_DDOT":0},{"OBJECT_NAME":"DELTA 2 R/B(2)","OBJECT_ID":"1996-003C","EPOCH":"2026-03-03T04:18:39.771072","MEAN_MOTION":2.19761519,"ECCENTRICITY":0.69249031,"INCLINATION":20.4345,"RA_OF_ASC_NODE":156.5076,"ARG_OF_PERICENTER":296.0706,"MEAN_ANOMALY":8.0531,"EPHEMERIS_TYPE":0,"CLASSIFICATION_TYPE":"U","NORAD_CAT_ID":23770,"ELEMENT_SET_NO":999,"REV_AT_EPOCH":24201,"BSTAR":0,"MEAN_MOTION_DOT":4.5e-7,"MEAN_MOTION_DDOT":0}]
