ATLAS 2 CENTAUR R/B(2)  
1 23648U 95038C   26063.50047366  .00000076  00000+0  00000+0 0  9997
2 23648  13.7764 346.0859 0023662 301.4353  58.3418  1.01263033 25023
COSMOS 2319             
1 23653U 95045A   26064.70391925 -.00000373  00000+0  00000+0 0  9998
2 23653  14.3692 353.4969 0006831 268.5544 280.7974  1.00206862111754
SL-12 R/B(2)            
1 23656U 95045D   26062.44905836  .00000065  00000+0  00000+0 0  9999
2 23656  14.4268 353.8308 0018214  50.8422 141.9150  1.00139228111602
TELSTAR 4 (TELSTAR 402R)
1 23670U 95049A   26064.35040433 -.00000179  00000+0  00000+0 0  9991
2 23670  13.5040  13.4494 0004925 321.1441 219.3358  1.00296229111469
LUCH-1                  
1 23680U 95054A   26064.67427459 -.00000122  00000+0  00000+0 0  9998
2 23680  15.0204   0.0662 0004455 150.1295 331.8636  1.00267036111310
SL-12 R/B(2)            
1 23683U 95054D   26064.72410382 -.00000377  00000+0  00000+0 0  9996
2 23683  14.9841 359.8839 0017898  97.6148  82.4753  1.00201511111333
ARIANE 42L+3 R/B        
1 23687U 95055B   26064.17005328 -.00000069  00000+0  76170-3 0  9993
2 23687   5.2521 297.6467 7227921 265.5858  16.3349  2.22313857245755
USA 115 (MILSTAR-1 2)   
1 23712U 95060A   26064.41679131 -.00000025  00000+0  00000+0 0  9991
2 23712  14.0358   4.5176 0004062 341.7289 206.9954  1.00275623 31844
TITAN 401 CENTAUR R/B   
1 23713U 95060B   26063.29990250 -.00000306  00000+0  00000+0 0  9997
2 23713  14.3794 359.6609 0035663 224.2651 135.4553  1.00603797 24374
ISO                     
1 23715U 95062A   26064.08794708 -.00000215  00000+0 -13718-2 0  9992
2 23715   2.5652 325.3290 8364967 323.7766   2.3859  1.02201686112637
ARIANE 44P+3 R/B        
1 23716U 95062B   26064.56354435 -.00000315  00000+0  00000+0 0  9992
2 23716   4.4153  22.9697 8347206  16.3327 358.5936  0.95004286105228
GALS 2                  
1 23717U 95063A   26064.71711600 -.00000291  00000+0  00000+0 0  9995
2 23717  14.4515   3.3766 0009347 329.0636 238.4698  0.99895473110599
SL-12 R/B(2)            
1 23720U 95063D   26064.02406037  .00000027  00000+0  00000+0 0  9994
2 23720  14.1953 348.9564 0035921 187.5535   3.4550  1.00285866110940
INSAT-2C                
1 23731U 95067B   26064.47892150  .00000085  00000+0  00000+0 0  9998
2 23731  14.2456   9.0438 0003883   6.3439 171.3844  0.99783181110377
GALAXY 3R (G-3R)        
1 23741U 95069A   26064.48657427  .00000019  00000+0  00000+0 0  9995
2 23741  13.1905  17.0000 0001812 345.3310 208.2928  1.00309421110774
ABS-1A                  
1 23768U 96003A   26064.68864095 -.00000239  00000+0  00000+0 0  9991
2 23768  12.4663  26.3227 0001234 291.7218 251.0671  0.99803652110143
DELTA 2 R/B(2)          
1 23770U 96003C   26062.17962698  .00000045  00000+0  00000+0 0  9998
2 23770  20.4345 156.5076 6924903 296.0706   8.0531  2.19761519242019
